start=new Date('2022-04-06T00:00:00.000Z').valueOf();
sats=[{"COUNTRY_CODE":"US","MEAN_ELEMENT_THEORY":"SGP4","FILE":"3389912","APOAPSIS":"541.214","LAUNCH_DATE":"2021-12-18","PERIAPSIS":"538.259","OBJECT_TYPE":"PAYLOAD","NORAD_CAT_ID":"50182","EPOCH":"2022-04-05T22:00:00.999936","RA_OF_ASC_NODE":"205.5627","INCLINATION":"53.2162","TLE_LINE2":"2 50182  53.2162 205.5627 0002136  31.8593  81.2614 15.08842918  3635","MEAN_MOTION_DDOT":"0.0000000000000","TLE_LINE1":"1 50182U 21125AC  22095.91667824 -.00071178  00000-0 -44982-2 0  9993","ELEMENT_SET_NO":"999","CENTER_NAME":"EARTH","BSTAR":"-0.00449820000000","TIME_SYSTEM":"UTC","RCS_SIZE":"LARGE","MEAN_MOTION_DOT":"-0.00071178","EPHEMERIS_TYPE":"0","REV_AT_EPOCH":"363","CLASSIFICATION_TYPE":"U","SITE":"AFWTR","SEMIMAJOR_AXIS":"6917.871","OBJECT_ID":"2021-125AC","ECCENTRICITY":"0.00021360","DECAY_DATE":null,"OBJECT_NAME":"STARLINK-3277","GP_ID":"200546518","MEAN_MOTION":"15.08842918","MEAN_ANOMALY":"81.2614","PERIOD":"95.437","ARG_OF_PERICENTER":"31.8593","REF_FRAME":"TEME"},{"CENTER_NAME":"EARTH","ELEMENT_SET_NO":"999","BSTAR":"-0.00391410000000","CLASSIFICATION_TYPE":"U","REV_AT_EPOCH":"362","EPHEMERIS_TYPE":"0","RCS_SIZE":"LARGE","TIME_SYSTEM":"UTC","MEAN_MOTION_DOT":"-0.00062072","OBJECT_NAME":"STARLINK-3281","DECAY_DATE":null,"OBJECT_ID":"2021-125AD","SEMIMAJOR_AXIS":"6917.835","SITE":"AFWTR","ECCENTRICITY":"0.00022510","ARG_OF_PERICENTER":"31.4654","PERIOD":"95.437","MEAN_ANOMALY":"61.5961","REF_FRAME":"TEME","GP_ID":"200544767","MEAN_MOTION":"15.08854720","APOAPSIS":"541.258","COUNTRY_CODE":"US","MEAN_ELEMENT_THEORY":"SGP4","FILE":"3389912","OBJECT_TYPE":"PAYLOAD","NORAD_CAT_ID":"50183","PERIAPSIS":"538.143","LAUNCH_DATE":"2021-12-18","EPOCH":"2022-04-05T22:00:00.999936","RA_OF_ASC_NODE":"205.5645","INCLINATION":"53.2172","TLE_LINE1":"1 50183U 21125AD  22095.91667824 -.00062072  00000-0 -39141-2 0  9998","TLE_LINE2":"2 50183  53.2172 205.5645 0002251  31.4654  61.5961 15.08854720  3628","MEAN_MOTION_DDOT":"0.0000000000000"},{"TLE_LINE2":"2 50185  53.2181 205.5653 0002181  32.2245  20.8971 15.08846467  3624","MEAN_MOTION_DDOT":"0.0000000000000","TLE_LINE1":"1 50185U 21125AF  22095.91667824 -.00071048  00000-0 -44894-2 0  9994","INCLINATION":"53.2181","RA_OF_ASC_NODE":"205.5653","EPOCH":"2022-04-05T22:00:00.999936","PERIAPSIS":"538.217","LAUNCH_DATE":"2021-12-18","NORAD_CAT_ID":"50185","OBJECT_TYPE":"PAYLOAD","MEAN_ELEMENT_THEORY":"SGP4","FILE":"3389912","COUNTRY_CODE":"US","APOAPSIS":"541.234","MEAN_MOTION":"15.08846467","GP_ID":"200545017","REF_FRAME":"TEME","PERIOD":"95.437","MEAN_ANOMALY":"20.8971","ARG_OF_PERICENTER":"32.2245","ECCENTRICITY":"0.00021810","OBJECT_ID":"2021-125AF","SITE":"AFWTR","SEMIMAJOR_AXIS":"6917.861","OBJECT_NAME":"STARLINK-3279","DECAY_DATE":null,"MEAN_MOTION_DOT":"-0.00071048","RCS_SIZE":"LARGE","TIME_SYSTEM":"UTC","CLASSIFICATION_TYPE":"U","REV_AT_EPOCH":"362","EPHEMERIS_TYPE":"0","BSTAR":"-0.00448940000000","CENTER_NAME":"EARTH","ELEMENT_SET_NO":"999"},{"GP_ID":"200546268","MEAN_MOTION":"15.08833605","PERIOD":"95.438","MEAN_ANOMALY":"308.2039","ARG_OF_PERICENTER":"29.9322","REF_FRAME":"TEME","OBJECT_ID":"2021-125AG","SEMIMAJOR_AXIS":"6917.900","SITE":"AFWTR","ECCENTRICITY":"0.00020770","OBJECT_NAME":"STARLINK-3274","DECAY_DATE":null,"RCS_SIZE":"LARGE","TIME_SYSTEM":"UTC","MEAN_MOTION_DOT":"-0.00031626","CLASSIFICATION_TYPE":"U","REV_AT_EPOCH":"361","EPHEMERIS_TYPE":"0","CENTER_NAME":"EARTH","ELEMENT_SET_NO":"999","BSTAR":"-0.00197800000000","INCLINATION":"53.2153","TLE_LINE2":"2 50186  53.2153 215.5649 0002077  29.9322 308.2039 15.08833605  3610","MEAN_MOTION_DDOT":"0.0000000000000","TLE_LINE1":"1 50186U 21125AG  22095.91667824 -.00031626  00000-0 -19780-2 0  9999","EPOCH":"2022-04-05T22:00:00.999936","RA_OF_ASC_NODE":"215.5649","LAUNCH_DATE":"2021-12-18","PERIAPSIS":"538.328","OBJECT_TYPE":"PAYLOAD","NORAD_CAT_ID":"50186","COUNTRY_CODE":"US","FILE":"3389912","MEAN_ELEMENT_THEORY":"SGP4","APOAPSIS":"541.202"},{"RCS_SIZE":"LARGE","TIME_SYSTEM":"UTC","MEAN_MOTION_DOT":"-0.00724474","CLASSIFICATION_TYPE":"U","REV_AT_EPOCH":"367","EPHEMERIS_TYPE":"0","CENTER_NAME":"EARTH","ELEMENT_SET_NO":"999","BSTAR":"-0.03637200000000","GP_ID":"200546019","MEAN_MOTION":"15.19312908","PERIOD":"94.780","MEAN_ANOMALY":"14.1849","ARG_OF_PERICENTER":"44.5984","REF_FRAME":"TEME","OBJECT_ID":"2021-125AH","SITE":"AFWTR","SEMIMAJOR_AXIS":"6886.053","ECCENTRICITY":"0.00015720","OBJECT_NAME":"STARLINK-3272","DECAY_DATE":null,"PERIAPSIS":"506.835","LAUNCH_DATE":"2021-12-18","OBJECT_TYPE":"PAYLOAD","NORAD_CAT_ID":"50187","COUNTRY_CODE":"US","MEAN_ELEMENT_THEORY":"SGP4","FILE":"3389912","APOAPSIS":"509.000","INCLINATION":"53.2173","TLE_LINE2":"2 50187  53.2173 195.8548 0001572  44.5984  14.1849 15.19312908  3675","MEAN_MOTION_DDOT":"0.0000000000000","TLE_LINE1":"1 50187U 21125AH  22095.91667824 -.00724474  00000-0 -36372-1 0  9995","EPOCH":"2022-04-05T22:00:00.999936","RA_OF_ASC_NODE":"195.8548"},{"TLE_LINE2":"2 50188  53.2174 195.8543 0001486  48.1265 353.7399 15.19187258  3667","MEAN_MOTION_DDOT":"0.0000000000000","TLE_LINE1":"1 50188U 21125AJ  22095.91667824 -.00724900  00000-0 -36529-1 0  9994","INCLINATION":"53.2174","RA_OF_ASC_NODE":"195.8543","EPOCH":"2022-04-05T22:00:00.999936","PERIAPSIS":"507.274","LAUNCH_DATE":"2021-12-18","NORAD_CAT_ID":"50188","OBJECT_TYPE":"PAYLOAD","FILE":"3389912","MEAN_ELEMENT_THEORY":"SGP4","COUNTRY_CODE":"US","APOAPSIS":"509.321","MEAN_MOTION":"15.19187258","GP_ID":"200545267","REF_FRAME":"TEME","MEAN_ANOMALY":"353.7399","PERIOD":"94.788","ARG_OF_PERICENTER":"48.1265","ECCENTRICITY":"0.00014860","SITE":"AFWTR","SEMIMAJOR_AXIS":"6886.433","OBJECT_ID":"2021-125AJ","DECAY_DATE":null,"OBJECT_NAME":"STARLINK-3275","MEAN_MOTION_DOT":"-0.00724900","TIME_SYSTEM":"UTC","RCS_SIZE":"LARGE","REV_AT_EPOCH":"366","EPHEMERIS_TYPE":"0","CLASSIFICATION_TYPE":"U","BSTAR":"-0.03652900000000","ELEMENT_SET_NO":"999","CENTER_NAME":"EARTH"},{"CENTER_NAME":"EARTH","ELEMENT_SET_NO":"999","BSTAR":"-0.00296710000000","CLASSIFICATION_TYPE":"U","REV_AT_EPOCH":"361","EPHEMERIS_TYPE":"0","RCS_SIZE":"LARGE","TIME_SYSTEM":"UTC","MEAN_MOTION_DOT":"-0.00047206","OBJECT_NAME":"STARLINK-3276","DECAY_DATE":null,"OBJECT_ID":"2021-125AK","SITE":"AFWTR","SEMIMAJOR_AXIS":"6917.866","ECCENTRICITY":"0.00015250","PERIOD":"95.437","MEAN_ANOMALY":"97.9218","ARG_OF_PERICENTER":"55.1947","REF_FRAME":"TEME","GP_ID":"200545517","MEAN_MOTION":"15.08844733","APOAPSIS":"540.786","COUNTRY_CODE":"US","MEAN_ELEMENT_THEORY":"SGP4","FILE":"3389912","OBJECT_TYPE":"PAYLOAD","NORAD_CAT_ID":"50189","LAUNCH_DATE":"2021-12-18","PERIAPSIS":"538.676","EPOCH":"2022-04-05T22:00:00.999936","RA_OF_ASC_NODE":"205.5781","INCLINATION":"53.2127","TLE_LINE2":"2 50189  53.2127 205.5781 0001525  55.1947  97.9218 15.08844733  3616","MEAN_MOTION_DDOT":"0.0000000000000","TLE_LINE1":"1 50189U 21125AK  22095.91667824 -.00047206  00000-0 -29671-2 0  9993"},{"CLASSIFICATION_TYPE":"U","EPHEMERIS_TYPE":"0","REV_AT_EPOCH":"367","RCS_SIZE":"LARGE","TIME_SYSTEM":"UTC","MEAN_MOTION_DOT":"-0.00723274","CENTER_NAME":"EARTH","ELEMENT_SET_NO":"999","BSTAR":"-0.03591000000000","PERIOD":"94.756","MEAN_ANOMALY":"60.9558","ARG_OF_PERICENTER":"48.3548","REF_FRAME":"TEME","GP_ID":"200545769","MEAN_MOTION":"15.19689922","OBJECT_NAME":"STARLINK-3268","DECAY_DATE":null,"OBJECT_ID":"2021-125AL","SITE":"AFWTR","SEMIMAJOR_AXIS":"6884.914","ECCENTRICITY":"0.00015800","OBJECT_TYPE":"PAYLOAD","NORAD_CAT_ID":"50190","PERIAPSIS":"505.691","LAUNCH_DATE":"2021-12-18","APOAPSIS":"507.867","COUNTRY_CODE":"US","FILE":"3389912","MEAN_ELEMENT_THEORY":"SGP4","INCLINATION":"53.2173","MEAN_MOTION_DDOT":"0.0000000000000","TLE_LINE2":"2 50190  53.2173 195.8554 0001580  48.3548  60.9558 15.19689922  3672","TLE_LINE1":"1 50190U 21125AL  22095.91667824 -.00723274  00000-0 -35910-1 0  9993","EPOCH":"2022-04-05T22:00:00.999936","RA_OF_ASC_NODE":"195.8554"},{"CLASSIFICATION_TYPE":"U","EPHEMERIS_TYPE":"0","REV_AT_EPOCH":"361","RCS_SIZE":"LARGE","TIME_SYSTEM":"UTC","MEAN_MOTION_DOT":"-0.00017323","CENTER_NAME":"EARTH","ELEMENT_SET_NO":"999","BSTAR":"-0.00107340000000","ARG_OF_PERICENTER":"33.7681","PERIOD":"95.439","MEAN_ANOMALY":"164.3548","REF_FRAME":"TEME","GP_ID":"200546519","MEAN_MOTION":"15.08822839","OBJECT_NAME":"STARLINK-3273","DECAY_DATE":null,"OBJECT_ID":"2021-125AM","SITE":"AFWTR","SEMIMAJOR_AXIS":"6917.933","ECCENTRICITY":"0.00020680","OBJECT_TYPE":"PAYLOAD","NORAD_CAT_ID":"50191","LAUNCH_DATE":"2021-12-18","PERIAPSIS":"538.367","APOAPSIS":"541.228","COUNTRY_CODE":"US","FILE":"3389912","MEAN_ELEMENT_THEORY":"SGP4","INCLINATION":"53.2178","TLE_LINE1":"1 50191U 21125AM  22095.91667824 -.00017323  00000-0 -10734-2 0  9993","TLE_LINE2":"2 50191  53.2178 215.5885 0002068  33.7681 164.3548 15.08822839  3619","MEAN_MOTION_DDOT":"0.0000000000000","EPOCH":"2022-04-05T22:00:00.999936","RA_OF_ASC_NODE":"215.5885"},{"GP_ID":"200544768","MEAN_MOTION":"15.19815732","PERIOD":"94.748","MEAN_ANOMALY":"75.4908","ARG_OF_PERICENTER":"50.5878","REF_FRAME":"TEME","OBJECT_ID":"2021-125AN","SITE":"AFWTR","SEMIMAJOR_AXIS":"6884.534","ECCENTRICITY":"0.00015560","OBJECT_NAME":"STARLINK-3259","DECAY_DATE":null,"RCS_SIZE":"LARGE","TIME_SYSTEM":"UTC","MEAN_MOTION_DOT":"-0.00723193","CLASSIFICATION_TYPE":"U","EPHEMERIS_TYPE":"0","REV_AT_EPOCH":"367","CENTER_NAME":"EARTH","ELEMENT_SET_NO":"999","BSTAR":"-0.03577400000000","INCLINATION":"53.2173","TLE_LINE2":"2 50192  53.2173 195.8555 0001556  50.5878  75.4908 15.19815732  3679","TLE_LINE1":"1 50192U 21125AN  22095.91667824 -.00723193  00000-0 -35774-1 0  9993","MEAN_MOTION_DDOT":"0.0000000000000","EPOCH":"2022-04-05T22:00:00.999936","RA_OF_ASC_NODE":"195.8555","PERIAPSIS":"505.328","LAUNCH_DATE":"2021-12-18","OBJECT_TYPE":"PAYLOAD","NORAD_CAT_ID":"50192","COUNTRY_CODE":"US","FILE":"3389912","MEAN_ELEMENT_THEORY":"SGP4","APOAPSIS":"507.470"}];
